IRIDIUM 112             
1 41925U 17003J   24086.95821889  .00000394  00000+0  13378-3 0  9992
2 41925  86.3930  67.7381 0002053  91.7658 268.3773 14.34220719376858
IRIDIUM 111             
1 41926U 17003K   24086.94552410  .00000390  00000+0  13213-3 0  9997
2 41926  86.3931  67.7961 0002269  94.6253 265.5202 14.34222673376831
IRIDIUM 113             
1 42803U 17039A   24087.13479463  .00000714  00000+0  24771-3 0  9990
2 42803  86.3936 301.5127 0002047  93.0956 267.0474 14.34222410354799
IRIDIUM 123             
1 42804U 17039B   24087.17628297 -.00000199  00000+0 -78284-4 0  9994
2 42804  86.3997 332.9990 0002108  91.0001 269.1437 14.34215867353564
IRIDIUM 120             
1 42805U 17039C   24087.12846557  .00000826  00000+0  28782-3 0  9993
2 42805  86.3926 301.4030 0002181  86.0475 274.0970 14.34211808354786
IRIDIUM 115             
1 42806U 17039D   24087.11571671  .00000901  00000+0  26165-3 0  9992
2 42806  86.4462 301.4210 0002086  92.9319 267.2121 14.43298500357138
IRIDIUM 118             
1 42807U 17039E   24087.20799378 -.00000023  00000+0 -15293-4 0  9997
2 42807  86.3992 332.9874 0001999  85.5283 274.6141 14.34218278353573
IRIDIUM 117             
1 42808U 17039F   24087.43632285  .00000925  00000+0  32306-3 0  9998
2 42808  86.3995 332.8575 0002279  89.5442 270.6015 14.34215582353635
